NORAD_CAT_ID,OBJECT_NAME,OBJECT_TYPE,EPOCH,MEAN_MOTION,ECCENTRICITY,INCLINATION,RA_OF_ASC_NODE,ARG_OF_PERICENTER,MEAN_ANOMALY,BSTAR,MEAN_MOTION_DOT,MEAN_MOTION_DDOT,TLE_LINE0,TLE_LINE1,TLE_LINE2,SEMIMAJOR_AXIS,PERIOD,APOGEE,PERIGEE,DECAYED
52363.0,STARLINK-3830,PAYLOAD,2022-10-17 15:30:39,15.08838962,0.0002393,53.221,1.3978,31.514,328.5995,9.4101e-05,1.21e-05,0.0,0 STARLINK-3830,1 52363U 22045AJ  22290.64629524  .00001210  00000-0  94101-4 0  9998,2 52363  53.2210   1.3978 0002393  31.5140 328.5995 15.08838962 28734,6917.884,95.438,541.404,538.0930000000002,0.0
52363.0,STARLINK-3830,PAYLOAD,2022-10-18 08:59:55,15.08827977,0.0002460999999999,53.2207,358.12699999999984,30.4735,329.6399,3.3998e-05,2.53e-06,0.0,0 STARLINK-3830,1 52363U 22045AJ  22291.37494684  .00000253  00000-0  33998-4 0  9999,2 52363  53.2207 358.1270 0002461  30.4735 329.6399 15.08827977 28848,6917.917,95.438,541.485,538.08,0.0
52363.0,STARLINK-3830,PAYLOAD,2022-10-18 21:43:00,15.08836176,0.0002476,53.2208,355.7483,31.1281,328.9857,6.2805e-05,7.11e-06,0.0,0 STARLINK-3830,1 52363U 22045AJ  22291.90486335  .00000711  00000-0  62805-4 0  9990,2 52363  53.2208 355.7483 0002476  31.1281 328.9857 15.08836176 28929,6917.892,95.438,541.47,538.044,0.0
52363.0,STARLINK-3830,PAYLOAD,2022-10-19 10:26:05,15.08838885,0.0002325,53.2206,353.3688,30.7235,329.3893,-3.235e-05,-8.03e-06,0.0,0 STARLINK-3830,1 52363U 22045AJ  22292.43478599 -.00000803  00000-0 -32350-4 0  9998,2 52363  53.2206 353.3688 0002325  30.7235 329.3893 15.08838885 29009,6917.884,95.438,541.357,538.14,0.0
52363.0,STARLINK-3830,PAYLOAD,2022-10-19 13:36:51,15.08841024,0.0002340999999999,53.2207,352.7742,30.7958,329.3171,-1.1776e-05,-4.76e-06,0.0,0 STARLINK-3830,1 52363U 22045AJ  22292.56726399 -.00000476  00000-0 -11776-4 0  9991,2 52363  53.2207 352.7742 0002341  30.7958 329.3171 15.08841024 29024,6917.877,95.437,541.362,538.123,0.0
52363.0,STARLINK-3830,PAYLOAD,2022-10-20 10:16:52,15.08837755,0.0002423999999999,53.2204,348.9084,30.669,329.4444,6.6237e-05,7.66e-06,0.0,0 STARLINK-3830,1 52363U 22045AJ  22293.42838212  .00000766  00000-0  66237-4 0  9997,2 52363  53.2204 348.9084 0002424  30.6690 329.4444 15.08837755 29155,6917.887,95.438,541.429,538.075,0.0
52363.0,STARLINK-3830,PAYLOAD,2022-10-21 10:07:39,15.08829196,0.0002401999999999,53.2205,344.4489,31.8086,328.3051,0.00019567,2.826e-05,0.0,0 STARLINK-3830,1 52363U 22045AJ  22294.42198414  .00002826  00000-0  19567-3 0  9993,2 52363  53.2205 344.4489 0002402  31.8086 328.3051 15.08829196 29303,6917.913000000001,95.438,541.44,538.117,0.0
52363.0,STARLINK-3830,PAYLOAD,2022-10-21 13:18:25,15.08843751,0.0002448,53.221,343.8547,30.3067,329.8066,4.1759e-05,3.76e-06,0.0,0 STARLINK-3830,1 52363U 22045AJ  22294.55445842  .00000376  00000-0  41759-4 0  9994,2 52363  53.2210 343.8547 0002448  30.3067 329.8066 15.08843751 29327,6917.869000000002,95.437,541.427,538.04,0.0
52363.0,STARLINK-3830,PAYLOAD,2022-10-22 08:23:02,15.08849541,0.0002529999999999,53.2209,340.2871,29.0728,331.0405,-8.512799999999999e-05,-1.643e-05,0.0,0 STARLINK-3830,1 52363U 22045AJ  22295.34933801 -.00001643  00000-0 -85128-4 0  9997,2 52363  53.2209 340.2871 0002530  29.0728 331.0405 15.08849541 29445,6917.851,95.437,541.466,537.966,0.0
52363.0,STARLINK-3830,PAYLOAD,2022-10-22 19:30:45,15.08844205,0.0002676,53.2208,338.2056,29.3291,330.7851,-0.0001301,-2.359e-05,0.0,0 STARLINK-3830,1 52363U 22045AJ  22295.81302241 -.00002359  00000-0 -13010-3 0  9992,2 52363  53.2208 338.2056 0002676  29.3291 330.7851 15.08844205 29516,6917.868,95.437,541.5840000000002,537.881,0.0
52363.0,STARLINK-3830,PAYLOAD,2022-10-23 11:24:35,15.08851801,0.0002675,53.2199,335.2312,29.5161,330.5982,0.00010677,1.412e-05,0.0,0 STARLINK-3830,1 52363U 22045AJ  22296.47540924  .00001412  00000-0  10677-3 0  9990,2 52363  53.2199 335.2312 0002675  29.5161 330.5982 15.08851801 29618,6917.844,95.437,541.56,537.859,0.0
52363.0,STARLINK-3830,PAYLOAD,2022-10-24 11:15:23,15.08826835,0.0002423,53.2209,330.7712,33.0118,327.1025,-0.00010259,-1.92e-05,0.0,0 STARLINK-3830,1 52363U 22045AJ  22297.46902671 -.00001920  00000-0 -10259-3 0  9993,2 52363  53.2209 330.7712 0002423  33.0118 327.1025 15.08826835 29762,6917.920999999999,95.438,541.462,538.109,0.0
52363.0,STARLINK-3830,PAYLOAD,2022-10-25 07:55:26,15.08820078,0.0002661999999999,53.2213,326.9076,41.4777,318.6417,-0.00023759,-4.066e-05,0.0,0 STARLINK-3830,1 52363U 22045AJ  22298.33016723 -.00004066  00000-0 -23759-3 0  9997,2 52363  53.2213 326.9076 0002662  41.4777 318.6417 15.08820078 29893,6917.941,95.439,541.648,537.965,0.0
52363.0,STARLINK-3830,PAYLOAD,2022-10-25 11:06:11,15.08846906,0.000207,53.2209,326.3087,31.7791,328.3326,-0.00023195,-3.979e-05,0.0,0 STARLINK-3830,1 52363U 22045AJ  22298.46263019 -.00003979  00000-0 -23195-3 0  9999,2 52363  53.2209 326.3087 0002070  31.7791 328.3326 15.08846906 29913,6917.859,95.437,541.156,538.2919999999998,0.0
52363.0,STARLINK-3830,PAYLOAD,2022-10-25 19:03:06,15.0884038,0.0002612,53.2199,324.824,28.3591,331.7543,-3.2042e-05,-7.98e-06,0.0,0 STARLINK-3830,1 52363U 22045AJ  22298.79383031 -.00000798  00000-0 -32042-4 0  9990,2 52363  53.2199 324.8240 0002612  28.3591 331.7543 15.08840380 29961,6917.879,95.438,541.5509999999998,537.937,0.0
52363.0,STARLINK-3830,PAYLOAD,2022-10-26 10:56:57,15.08837412,0.0002671,53.2204,321.8503,30.7573,329.3575,0.0001976999999999,2.859e-05,0.0,0 STARLINK-3830,1 52363U 22045AJ  22299.45622469  .00002859  00000-0  19770-3 0  9995,2 52363  53.2204 321.8503 0002671  30.7573 329.3575 15.08837412 30062,6917.888000000001,95.438,541.601,537.906,0.0
52363.0,STARLINK-3830,PAYLOAD,2022-10-26 18:53:53,15.08837559,0.0002783,53.2201,320.3634,29.8871,330.228,0.00022446,3.286e-05,0.0,0 STARLINK-3830,1 52363U 22045AJ  22299.78742525  .00003286  00000-0  22446-3 0  9996,2 52363  53.2201 320.3634 0002783  29.8871 330.2280 15.08837559 30114,6917.888000000001,95.438,541.678,537.828,0.0
52363.0,STARLINK-3830,PAYLOAD,2022-10-27 04:26:12,15.08832083,0.0002811,53.2201,318.5804,30.7802,329.3354,0.00020296,2.943e-05,0.0,0 STARLINK-3830,1 52363U 22045AJ  22300.18487268  .00002943  00000-0  20296-3 0  9993,2 52363  53.2201 318.5804 0002811  30.7802 329.3354 15.08832083 30173,6917.905,95.438,541.714,537.825,0.0
52363.0,STARLINK-3830,PAYLOAD,2022-10-27 10:47:43,15.08941988,0.0002263,53.2202,317.3906,22.9474,337.1619,-0.0011515,-0.0001862,0.0,0 STARLINK-3830,1 52363U 22045AJ  22300.44980521 -.00018620  00000-0 -11515-2 0  9996,2 52363  53.2202 317.3906 0002263  22.9474 337.1619 15.08941988 30214,6917.569,95.431,540.999,537.868,0.0
52363.0,STARLINK-3830,PAYLOAD,2022-10-28 07:27:45,15.08854984,0.0002891,53.2197,313.5251,34.2486,325.8692,8.7e-05,1.097e-05,0.0,0 STARLINK-3830,1 52363U 22045AJ  22301.31093770  .00001097  00000-0  87000-4 0  9996,2 52363  53.2197 313.5251 0002891  34.2486 325.8692 15.08854984 30342,6917.835,95.437,541.7,537.7,0.0
52363.0,STARLINK-3830,PAYLOAD,2022-10-28 10:38:31,15.08846024,0.0002887999999999,53.2194,312.9307,30.7465,329.3696,-6.699200000000001e-07,-2.99e-06,0.0,0 STARLINK-3830,1 52363U 22045AJ  22301.44342447 -.00000299  00000-0 -66992-6 0  9992,2 52363  53.2194 312.9307 0002888  30.7465 329.3696 15.08846024 30369,6917.861999999999,95.437,541.725,537.729,0.0
52363.0,STARLINK-3830,PAYLOAD,2022-10-29 07:18:32,15.08844206,0.0002768999999999,53.2192,309.0633,28.871,331.2435,-2.4829e-05,-6.84e-06,0.0,0 STARLINK-3830,1 52363U 22045AJ  22302.30454323 -.00000684  00000-0 -24829-4 0  9994,2 52363  53.2192 309.0633 0002769  28.8710 331.2435 15.08844206 30492,6917.868,95.437,541.648,537.817,0.0
52363.0,STARLINK-3830,PAYLOAD,2022-10-30 07:09:20,15.08835522,0.0002845,53.2194,304.6031,30.8863,329.2296,-7.7914e-05,-1.528e-05,0.0,0 STARLINK-3830,1 52363U 22045AJ  22303.29814885 -.00001528  00000-0 -77914-4 0  9997,2 52363  53.2194 304.6031 0002845  30.8863 329.2296 15.08835522 30644,6917.894,95.438,541.727,537.7909999999998,0.0
52363.0,STARLINK-3830,PAYLOAD,2022-10-30 16:41:38,15.08837651,0.0002607,53.2191,302.821,29.6259,330.48800000000006,-3.5521e-05,-8.54e-06,0.0,0 STARLINK-3830,1 52363U 22045AJ  22303.69558671 -.00000854  00000-0 -35521-4 0  9998,2 52363  53.2191 302.8210 0002607  29.6259 330.4880 15.08837651 30706,6917.888000000001,95.438,541.556,537.9490000000002,0.0
52363.0,STARLINK-3830,PAYLOAD,2022-10-31 08:35:27,15.08862722,0.0002692,53.2195,299.8465,29.2987,330.8155,0.000296,4.429e-05,0.0,0 STARLINK-3830,1 52363U 22045AJ  22304.35796185  .00004429  00000-0  29600-3 0  9996,2 52363  53.2195 299.8465 0002692  29.2987 330.8155 15.08862722 30802,6917.811,95.436,541.538,537.814,0.0
52363.0,STARLINK-3830,PAYLOAD,2022-10-31 22:53:57,15.08845506,0.0002773,53.2199,297.1697,35.2431,324.8744,0.00013343,1.836e-05,0.0,0 STARLINK-3830,1 52363U 22045AJ  22304.95413611  .00001836  00000-0  13343-3 0  9998,2 52363  53.2199 297.1697 0002773  35.2431 324.8744 15.08845506 30892,6917.864000000001,95.437,541.6469999999998,537.81,0.0
52363.0,STARLINK-3830,PAYLOAD,2022-11-01 10:01:39,15.08835774,0.0002225,53.2196,295.0846,32.7669,327.346,8.8625e-05,1.122e-05,0.0,0 STARLINK-3830,1 52363U 22045AJ  22305.41782404  .00001122  00000-0  88625-4 0  9993,2 52363  53.2196 295.0846 0002225  32.7669 327.3460 15.08835774 30966,6917.893,95.438,541.298,538.219,0.0
52363.0,STARLINK-3830,PAYLOAD,2022-11-01 16:23:12,15.08837121,0.0002895,53.2193,293.8953,23.1797,336.9325,3.4793000000000004e-05,2.65e-06,0.0,0 STARLINK-3830,1 52363U 22045AJ  22305.68278568  .00000265  00000-0  34793-4 0  9997,2 52363  53.2193 293.8953 0002895  23.1797 336.9325 15.08837121 31007,6917.889,95.438,541.757,537.751,0.0
52363.0,STARLINK-3830,PAYLOAD,2022-11-02 08:17:03,15.08848546,0.0002689,53.2197,290.9252,29.9428,330.1718,7.0405e-06,-1.76e-06,0.0,0 STARLINK-3830,1 52363U 22045AJ  22306.34517992 -.00000176  00000-0  70405-5 0  9991,2 52363  53.2197 290.9252 0002689  29.9428 330.1718 15.08848546 31103,6917.854,95.437,541.5790000000002,537.859,0.0
